[{"OBJECT_NAME":"STARLINK-1337","OBJECT_ID":"2020-025BD","EPOCH":"2026-03-09T22:35:33.556704","MEAN_MOTION":15.5811643,"ECCENTRICITY":0.00049353,"INCLINATION":53.0535,"RA_OF_ASC_NODE":60.5346,"ARG_OF_PERICENTER":78.7779,"MEAN_ANOMALY":281.3787,"EPHEMERIS_TYPE":0,"CLASSIFICATION_TYPE":"U","NORAD_CAT_ID":45582,"ELEMENT_SET_NO":999,"REV_AT_EPOCH":32575,"BSTAR":0.00094647262,"MEAN_MOTION_DOT":0.00072727,"MEAN_MOTION_DDOT":0},{"OBJECT_NAME":"HAWK-3B","OBJECT_ID":"2021-059BE","EPOCH":"2026-03-09T11:39:39.463488","MEAN_MOTION":15.61552399,"ECCENTRICITY":0.0005147,"INCLINATION":97.6723,"RA_OF_ASC_NODE":256.3511,"ARG_OF_PERICENTER":338.9572,"MEAN_ANOMALY":21.1472,"EPHEMERIS_TYPE":0,"CLASSIFICATION_TYPE":"U","NORAD_CAT_ID":48931,"ELEMENT_SET_NO":999,"REV_AT_EPOCH":26225,"BSTAR":0.00046889102,"MEAN_MOTION_DOT":0.00040225,"MEAN_MOTION_DDOT":0}]
